{
  "norad_id": 62879,
  "name": "STARLINK-11371 [DTC]",
  "history": [
    {
      "epoch": "2026-03-28T15:21:00.377280Z",
      "apogee_km": 357.47424461512765,
      "perigee_km": 354.3658038927324,
      "latitude_deg": 1.715242751929403e-05,
      "longitude_deg": 11.219404061439512,
      "height_km": 354.75399332721724,
      "semi_major_axis_km": 6734.05702425393,
      "eccentricity": 0.0002308,
      "inclination_deg": 43.001,
      "raan_deg": 67.5281,
      "arg_perigee_deg": 307.1713,
      "mean_anomaly_deg": 52.8944,
      "mean_motion_rev_day": 15.71041211
    },
    {
      "epoch": "2026-03-29T05:05:02.431680Z",
      "apogee_km": 357.5742099002755,
      "perigee_km": 354.65827824559165,
      "latitude_deg": 3.633428164922782e-05,
      "longitude_deg": 161.19763308806088,
      "height_km": 356.31535396396674,
      "semi_major_axis_km": 6734.253244072933,
      "eccentricity": 0.0002165,
      "inclination_deg": 43.0003,
      "raan_deg": 64.0789,
      "arg_perigee_deg": 253.0036,
      "mean_anomaly_deg": 107.0595,
      "mean_motion_rev_day": 15.70972547
    },
    {
      "epoch": "2026-03-30T00:55:19.100928Z",
      "apogee_km": 361.792548718272,
      "perigee_km": 351.40893007167233,
      "latitude_deg": 3.262972737662726e-05,
      "longitude_deg": -142.16954183552312,
      "height_km": 353.95798638572876,
      "semi_major_axis_km": 6734.737739394972,
      "eccentricity": 0.0007709,
      "inclination_deg": 42.9998,
      "raan_deg": 59.0959,
      "arg_perigee_deg": 297.7585,
      "mean_anomaly_deg": 62.2501,
      "mean_motion_rev_day": 15.70803027
    },
    {
      "epoch": "2026-03-30T00:55:19.101792Z",
      "apogee_km": 361.79227932876256,
      "perigee_km": 351.40919946118174,
      "latitude_deg": 2.983333083052851e-05,
      "longitude_deg": -142.16954842730382,
      "height_km": 353.9581118342236,
      "semi_major_axis_km": 6734.737739394972,
      "eccentricity": 0.00077086,
      "inclination_deg": 42.9998,
      "raan_deg": 59.0959,
      "arg_perigee_deg": 297.7585,
      "mean_anomaly_deg": 62.2501,
      "mean_motion_rev_day": 15.70803027
    }
  ]
}